NORAD_CAT_ID,OBJECT_NAME,OBJECT_TYPE,EPOCH,MEAN_MOTION,ECCENTRICITY,INCLINATION,RA_OF_ASC_NODE,ARG_OF_PERICENTER,MEAN_ANOMALY,BSTAR,MEAN_MOTION_DOT,MEAN_MOTION_DDOT,TLE_LINE0,TLE_LINE1,TLE_LINE2,SEMIMAJOR_AXIS,PERIOD,APOGEE,PERIGEE,DECAYED
56458.0,STARLINK-6050,PAYLOAD,2024-07-04 21:29:16,14.98321871,0.0003115,69.9987,249.5957,270.2843,89.7959,0.00014526,1.64e-05,0.0,0 STARLINK-6050,1 56458U 23064L   24186.89533519  .00001640  00000-0  14526-3 0  9999,2 56458  69.9987 249.5957 0003115 270.2843  89.7959 14.98321871 63454,6950.218,96.108,574.248,569.918,0.0
56458.0,STARLINK-6050,PAYLOAD,2024-07-05 11:54:29,14.98324761,0.0003115,69.9987,248.0809,269.8691,90.2111,6.5741e-05,6.91e-06,0.0,0 STARLINK-6050,1 56458U 23064L   24187.49617809  .00000691  00000-0  65741-4 0  9992,2 56458  69.9987 248.0809 0003115 269.8691  90.2111 14.98324761 63907,6950.209,96.107,574.239,569.909,0.0
56458.0,STARLINK-6050,PAYLOAD,2024-07-05 13:30:37,14.98324142,0.0003118,69.9987,247.9125,269.883,90.1972,5.7282e-05,5.9e-06,0.0,0 STARLINK-6050,1 56458U 23064L   24187.56293893  .00000590  00000-0  57282-4 0  9992,2 56458  69.9987 247.9125 0003118 269.8830  90.1972 14.98324142 63552,6950.211,96.107,574.243,569.909,0.0
56458.0,STARLINK-6050,PAYLOAD,2024-07-05 21:31:18,14.9832399,0.0003154,69.9986,247.0707,270.6522,89.4276,1.8452e-05,1.27e-06,0.0,0 STARLINK-6050,1 56458U 23064L   24187.89674113  .00000127  00000-0  18452-4 0  9998,2 56458  69.9986 247.0707 0003154 270.6522  89.4276 14.98323990 63600,6950.211,96.107,574.269,569.884,0.0
56458.0,STARLINK-6050,PAYLOAD,2024-07-06 11:56:30,14.98330516,0.0003231,69.9983,245.5554,270.1027,89.9762,2.8907e-05,2.52e-06,0.0,0 STARLINK-6050,1 56458U 23064L   24188.49757717  .00000252  00000-0  28907-4 0  9992,2 56458  69.9983 245.5554 0003231 270.1027  89.9762 14.98330516 64058,6950.191,96.107,574.302,569.811,0.0
56458.0,STARLINK-6050,PAYLOAD,2024-07-06 13:32:38,14.98331312,0.0003225,69.9984,245.3871,270.1657,89.9132,3.7316e-05,3.52e-06,0.0,0 STARLINK-6050,1 56458U 23064L   24188.56433642  .00000352  00000-0  37316-4 0  9993,2 56458  69.9984 245.3871 0003225 270.1657  89.9132 14.98331312 63708,6950.189,96.107,574.295,569.812,0.0
56458.0,STARLINK-6050,PAYLOAD,2024-07-06 21:33:19,14.98329767,0.0003217,69.9984,244.5455,270.2725,89.8065,2.6083e-06,-6.2e-07,0.0,0 STARLINK-6050,1 56458U 23064L   24188.89813823 -.00000062  00000-0  26083-5 0  9991,2 56458  69.9984 244.5455 0003217 270.2725  89.8065 14.98329767 63755,6950.194,96.107,574.294,569.823,0.0
56458.0,STARLINK-6050,PAYLOAD,2024-07-07 11:58:31,14.98330413,0.0003249,69.9984,243.0305,270.0488,90.0299,3.799e-05,3.6e-06,0.0,0 STARLINK-6050,1 56458U 23064L   24189.49897711  .00000360  00000-0  37990-4 0  9994,2 56458  69.9984 243.0305 0003249 270.0488  90.0299 14.98330413 64206,6950.192,96.107,574.315,569.798,0.0
56458.0,STARLINK-6050,PAYLOAD,2024-07-08 13:36:39,14.9833839,0.0003245,69.9985,240.3372,269.8753,90.2034,7.1353e-05,7.59e-06,0.0,0 STARLINK-6050,1 56458U 23064L   24190.56712901  .00000759  00000-0  71353-4 0  9994,2 56458  69.9985 240.3372 0003245 269.8753  90.2034 14.98338390 64366,6950.167,96.106,574.287,569.777,0.0
56458.0,STARLINK-6050,PAYLOAD,2024-07-08 20:01:12,14.98332761,0.0003202,69.9986,239.6638,270.1063,89.9729,2.4411e-05,1.98e-06,0.0,0 STARLINK-6050,1 56458U 23064L   24190.83417291  .00000198  00000-0  24411-4 0  9998,2 56458  69.9986 239.6638 0003202 270.1063  89.9729 14.98332761 64042,6950.184,96.107,574.275,569.824,0.0
56458.0,STARLINK-6050,PAYLOAD,2024-07-09 04:01:52,14.98330338,0.0003175,69.9986,238.8223,270.0866,89.993,1.5117e-06,-7.5e-07,0.0,0 STARLINK-6050,1 56458U 23064L   24191.16797453 -.00000075  00000-0  15117-5 0  9995,2 56458  69.9986 238.8223 0003175 270.0866  89.9930 14.98330338 64459,6950.192,96.107,574.264,569.85,0.0
56458.0,STARLINK-6050,PAYLOAD,2024-07-09 13:38:41,14.98329477,0.0003154,69.9988,237.8124,270.6576,89.4221,1.0059e-05,2.7e-07,0.0,0 STARLINK-6050,1 56458U 23064L   24191.56853469  .00000027  00000-0  10059-4 0  9994,2 56458  69.9988 237.8124 0003154 270.6576  89.4221 14.98329477 64158,6950.195,96.107,574.252,569.867,0.0
56458.0,STARLINK-6050,PAYLOAD,2024-07-10 04:03:54,14.98330757,0.0003132,69.9989,236.2976,270.3617,89.7183,-6.2968e-05,-8.44e-06,0.0,0 STARLINK-6050,1 56458U 23064L   24192.16937551 -.00000844  00000-0 -62968-4 0  9991,2 56458  69.9989 236.2976 0003132 270.3617  89.7183 14.98330757 64609,6950.191,96.107,574.232,569.879,0.0
56458.0,STARLINK-6050,PAYLOAD,2024-07-10 10:28:26,14.98328389,0.0003183,69.9989,235.6247,268.0308,92.0486,-8.7181e-05,-1.133e-05,0.0,0 STARLINK-6050,1 56458U 23064L   24192.43641734 -.00001133  00000-0 -87181-4 0  9992,2 56458  69.9989 235.6247 0003183 268.0308  92.0486 14.98328389 64285,6950.198,96.107,574.275,569.851,0.0
56458.0,STARLINK-6050,PAYLOAD,2024-07-11 04:05:54,14.98328484,0.000327,69.9989,233.773,268.4746,91.6039,2.8904e-05,2.52e-06,0.0,0 STARLINK-6050,1 56458U 23064L   24193.17077424  .00000252  00000-0  28904-4 0  9990,2 56458  69.9989 233.7730 0003270 268.4746  91.6039 14.98328484 64755,6950.198,96.107,574.335,569.79,0.0
56458.0,STARLINK-6050,PAYLOAD,2024-07-11 12:06:35,14.98329668,0.0003326,69.9987,232.9315,269.2908,90.787,3.3767e-05,3.1e-06,0.0,0 STARLINK-6050,1 56458U 23064L   24193.50457370  .00000310  00000-0  33767-4 0  9997,2 56458  69.9987 232.9315 0003326 269.2908  90.7870 14.98329668 64448,6950.194,96.107,574.371,569.747,0.0
56458.0,STARLINK-6050,PAYLOAD,2024-07-11 20:07:15,14.98330436,0.0003454,69.9985,232.0899,269.6798,90.3965,3.0857e-05,2.75e-06,0.0,0 STARLINK-6050,1 56458U 23064L   24193.83837304  .00000275  00000-0  30857-4 0  9999,2 56458  69.9985 232.0899 0003454 269.6798  90.3965 14.98330436 64498,6950.192,96.107,574.457,569.656,0.0
56458.0,STARLINK-6050,PAYLOAD,2024-07-12 05:44:03,14.98328221,0.0003475,69.9984,231.0794,270.1574,89.9187,4.471e-05,4.4e-06,0.0,0 STARLINK-6050,1 56458U 23064L   24194.23893462  .00000440  00000-0  44710-4 0  9998,2 56458  69.9984 231.0794 0003475 270.1574  89.9187 14.98328221 64918,6950.198,96.107,574.479,569.648,0.0
56458.0,STARLINK-6050,PAYLOAD,2024-07-12 12:08:36,14.98330423,0.0003466,69.9984,230.4062,270.1626,89.9136,6.5851e-05,6.93e-06,0.0,0 STARLINK-6050,1 56458U 23064L   24194.50597291  .00000693  00000-0  65851-4 0  9998,2 56458  69.9984 230.4062 0003466 270.1626  89.9136 14.98330423 64592,6950.192,96.107,574.466,569.648,0.0
56458.0,STARLINK-6050,PAYLOAD,2024-07-12 20:09:16,14.98329493,0.0003427,69.9985,229.564,269.9376,90.139,4.3384e-05,4.25e-06,0.0,0 STARLINK-6050,1 56458U 23064L   24194.83977403  .00000425  00000-0  43384-4 0  9991,2 56458  69.9985 229.5640 0003427 269.9376  90.1390 14.98329493 64646,6950.194,96.107,574.441,569.678,0.0
56458.0,STARLINK-6050,PAYLOAD,2024-07-13 12:10:37,14.98331929,0.0003441,69.9984,227.8807,269.4543,90.6221,2.4505e-05,1.99e-06,0.0,0 STARLINK-6050,1 56458U 23064L   24195.50737280  .00000199  00000-0  24505-4 0  9995,2 56458  69.9984 227.8807 0003441 269.4543  90.6221 14.98331929 65105,6950.187,96.107,574.443,569.66,0.0
56458.0,STARLINK-6050,PAYLOAD,2024-07-14 12:12:38,14.98331183,0.0003435,69.9984,225.3559,269.3337,90.7428,1.2753e-05,5.9e-07,0.0,0 STARLINK-6050,1 56458U 23064L   24196.50877326  .00000059  00000-0  12753-4 0  9999,2 56458  69.9984 225.3559 0003435 269.3337  90.7428 14.98331183 65253,6950.189,96.107,574.442,569.667,0.0
56458.0,STARLINK-6050,PAYLOAD,2024-07-15 04:13:57,14.98346865,0.0003248,69.9983,223.6674,273.2161,86.8627,5.4661e-05,5.59e-06,0.0,0 STARLINK-6050,1 56458U 23064L   24197.17636020  .00000559  00000-0  54661-4 0  9996,2 56458  69.9983 223.6674 0003248 273.2161  86.8627 14.98346865 65353,6950.141,96.106,574.263,569.748,0.0
56458.0,STARLINK-6050,PAYLOAD,2024-07-15 10:38:28,14.98348293,0.0002579,70.0005,223.0002,261.5401,98.5466,0.00026529,3.075e-05,0.0,0 STARLINK-6050,1 56458U 23064L   24197.44339108  .00003075  00000-0  26529-3 0  9990,2 56458  70.0005 223.0002 0002579 261.5401  98.5466 14.98348293 65036,6950.136,96.106,573.794,570.209,0.0
56458.0,STARLINK-6050,PAYLOAD,2024-07-15 18:39:08,14.98348122,0.0004106,69.9981,222.1576,267.6411,92.4278,0.00016267,1.849e-05,0.0,0 STARLINK-6050,1 56458U 23064L   24197.77718622  .00001849  00000-0  16267-3 0  9993,2 56458  69.9981 222.1576 0004106 267.6411  92.4278 14.98348122 65088,6950.137,96.106,574.856,569.148,0.0
56458.0,STARLINK-6050,PAYLOAD,2024-07-16 04:15:58,14.9833626,0.0003001,70.0003,221.155,246.1937,113.8908,3.0434e-05,2.7e-06,0.0,0 STARLINK-6050,1 56458U 23064L   24198.17775885  .00000270  00000-0  30434-4 0  9992,2 56458  70.0003 221.1550 0003001 246.1937 113.8908 14.98336260 65500,6950.174,96.107,574.124,569.953,0.0
56458.0,STARLINK-6050,PAYLOAD,2024-07-16 10:40:31,14.98320461,0.0003002,69.9993,220.4763,263.118,96.9637,-0.00011317,-1.443e-05,0.0,0 STARLINK-6050,1 56458U 23064L   24198.44481285 -.00001443  00000-0 -11317-3 0  9993,2 56458  69.9993 220.4763 0003002 263.1180  96.9637 14.98320461 65543,6950.222,96.108,574.174,570.001,0.0
56458.0,STARLINK-6050,PAYLOAD,2024-07-17 05:54:07,14.98340562,0.0003069,69.9994,218.4566,263.0328,97.0482,-0.00024117,-2.97e-05,0.0,0 STARLINK-6050,1 56458U 23064L   24199.24592269 -.00002970  00000-0 -24117-3 0  9995,2 56458  69.9994 218.4566 0003069 263.0328  97.0482 14.98340562 65665,6950.16,96.106,574.158,569.892,0.0
56458.0,STARLINK-6050,PAYLOAD,2024-07-17 10:42:32,14.98336897,0.0003134,69.9991,217.9513,264.0465,96.0337,-0.00026578,-3.263e-05,0.0,0 STARLINK-6050,1 56458U 23064L   24199.44620473 -.00003263  00000-0 -26578-3 0  9995,2 56458  69.9991 217.9513 0003134 264.0465  96.0337 14.98336897 65332,6950.172,96.107,574.215,569.858,0.0
56458.0,STARLINK-6050,PAYLOAD,2024-07-18 04:20:01,14.98318245,0.000344,69.9982,216.0981,265.2364,94.8402,4.8277e-05,4.83e-06,0.0,0 STARLINK-6050,1 56458U 23064L   24200.18056844  .00000483  00000-0  48277-4 0  9994,2 56458  69.9982 216.0981 0003440 265.2364  94.8402 14.98318245 65800,6950.229,96.108,574.485,569.703,0.0
